{
  "type": "FeatureCollection",
  "features": [
    {
      "type": "Feature",
      "properties": {
        "norad_id": 22490,
        "name": "SCD 1",
        "group": "resource",
        "lat": -13.786193812476286,
        "lon": -179.1097705274567,
        "alt_km": 711.1772699720614,
        "timestamp": "2025-12-04T13:52:00.104380+00:00",
        "meta_object_name": "SCD 1",
        "meta_object_id": "1993-009B",
        "meta_epoch": "2025-12-04T06:46:56.038656",
        "meta_mean_motion": 14.45989701,
        "meta_eccentricity": 0.00417912,
        "meta_inclination": 24.9709,
        "meta_ra_of_asc_node": 330.8926,
        "meta_arg_of_pericenter": 235.0411,
        "meta_mean_anomaly": 239.7639,
        "meta_ephemeris_type": 0,
        "meta_classification_type": "U",
        "meta_norad_cat_id": 22490,
        "meta_element_set_no": 999,
        "meta_rev_at_epoch": 73287,
        "meta_bstar": 0.00018100932,
        "meta_mean_motion_dot": 8.49e-06,
        "meta_mean_motion_ddot": 0,
        "tle_line1": "1 22490U 93009B   25338.28259304  .00000849  00000+0  18101-3 0  9996",
        "tle_line2": "2 22490  24.9709 330.8926 0041791 235.0411 239.7639 14.45989701732873"
      },
      "geometry": {
        "type": "Point",
        "coordinates": [
          -179.1097705274567,
          -13.786193812476286
        ]
      }
    },
    {
      "type": "Feature",
      "properties": {
        "norad_id": 25397,
        "name": "TECHSAT 1B (GO-32)",
        "group": "resource",
        "lat": 76.50171925074251,
        "lon": -177.1304786358474,
        "alt_km": 801.9633464944636,
        "timestamp": "2025-12-04T13:52:00.104405+00:00",
        "meta_object_name": "TECHSAT 1B (GO-32)",
        "meta_object_id": "1998-043D",
        "meta_epoch": "2025-12-03T22:13:32.295072",
        "meta_mean_motion": 14.24373188,
        "meta_eccentricity": 0.0002221,
        "meta_inclination": 98.9913,
        "meta_ra_of_asc_node": 320.9351,
        "meta_arg_of_pericenter": 71.8261,
        "meta_mean_anomaly": 288.3159,
        "meta_ephemeris_type": 0,
        "meta_classification_type": "U",
        "meta_norad_cat_id": 25397,
        "meta_element_set_no": 999,
        "meta_rev_at_epoch": 42353,
        "meta_bstar": 0.00010215,
        "meta_mean_motion_dot": 1.9e-06,
        "meta_mean_motion_ddot": 0,
        "tle_line1": "1 25397U 98043D   25337.92606823  .00000190  00000+0  10215-3 0  9997",
        "tle_line2": "2 25397  98.9913 320.9351 0002221  71.8261 288.3159 14.24373188423536"
      },
      "geometry": {
        "type": "Point",
        "coordinates": [
          -177.1304786358474,
          76.50171925074251
        ]
      }
    },
    {
      "type": "Feature",
      "properties": {
        "norad_id": 25504,
        "name": "SCD 2",
        "group": "resource",
        "lat": -24.819692598968945,
        "lon": 95.31487690913579,
        "alt_km": 731.8501071294177,
        "timestamp": "2025-12-04T13:52:00.104420+00:00",
        "meta_object_name": "SCD 2",
        "meta_object_id": "1998-060A",
        "meta_epoch": "2025-12-03T07:34:14.746944",
        "meta_mean_motion": 14.45414838,
        "meta_eccentricity": 0.0016689,
        "meta_inclination": 24.9937,
        "meta_ra_of_asc_node": 200.0088,
        "meta_arg_of_pericenter": 212.8278,
        "meta_mean_anomaly": 308.9112,
        "meta_ephemeris_type": 0,
        "meta_classification_type": "U",
        "meta_norad_cat_id": 25504,
        "meta_element_set_no": 999,
        "meta_rev_at_epoch": 43195,
        "meta_bstar": 0.00010911,
        "meta_mean_motion_dot": 5.73e-06,
        "meta_mean_motion_ddot": 0,
        "tle_line1": "1 25504U 98060A   25337.31544846  .00000573  00000+0  10911-3 0  9993",
        "tle_line2": "2 25504  24.9937 200.0088 0016689 212.8278 308.9112 14.45414838431958"
      },
      "geometry": {
        "type": "Point",
        "coordinates": [
          95.31487690913579,
          -24.819692598968945
        ]
      }
    },
    {
      "type": "Feature",
      "properties": {
        "norad_id": 25757,
        "name": "DLR-TUBSAT",
        "group": "resource",
        "lat": -37.179650534118295,
        "lon": 136.2052911774147,
        "alt_km": 714.8006995140922,
        "timestamp": "2025-12-04T13:52:00.104434+00:00",
        "meta_object_name": "DLR-TUBSAT",
        "meta_object_id": "1999-029B",
        "meta_epoch": "2025-12-03T21:59:10.893984",
        "meta_mean_motion": 14.52352412,
        "meta_eccentricity": 0.0013422,
        "meta_inclination": 98.6555,
        "meta_ra_of_asc_node": 322.1579,
        "meta_arg_of_pericenter": 220.596,
        "meta_mean_anomaly": 139.4235,
        "meta_ephemeris_type": 0,
        "meta_classification_type": "U",
        "meta_norad_cat_id": 25757,
        "meta_element_set_no": 999,
        "meta_rev_at_epoch": 40490,
        "meta_bstar": 8.1828e-05,
        "meta_mean_motion_dot": 2.85e-06,
        "meta_mean_motion_ddot": 0,
        "tle_line1": "1 25757U 99029B   25337.91609831  .00000285  00000+0  81828-4 0  9997",
        "tle_line2": "2 25757  98.6555 322.1579 0013422 220.5960 139.4235 14.52352412404904"
      },
      "geometry": {
        "type": "Point",
        "coordinates": [
          136.2052911774147,
          -37.179650534118295
        ]
      }
    },
    {
      "type": "Feature",
      "properties": {
        "norad_id": 25994,
        "name": "TERRA",
        "group": "resource",
        "lat": 29.45892226245995,
        "lon": 26.019056467725395,
        "alt_km": 688.455263118145,
        "timestamp": "2025-12-04T13:52:00.104446+00:00",
        "meta_object_name": "TERRA",
        "meta_object_id": "1999-068A",
        "meta_epoch": "2025-12-04T07:28:15.157056",
        "meta_mean_motion": 14.60938149,
        "meta_eccentricity": 0.00034353,
        "meta_inclination": 97.9761,
        "meta_ra_of_asc_node": 30.3045,
        "meta_arg_of_pericenter": 114.7985,
        "meta_mean_anomaly": 314.3681,
        "meta_ephemeris_type": 0,
        "meta_classification_type": "U",
        "meta_norad_cat_id": 25994,
        "meta_element_set_no": 999,
        "meta_rev_at_epoch": 38115,
        "meta_bstar": 0.00022822242,
        "meta_mean_motion_dot": 1.073e-05,
        "meta_mean_motion_ddot": 0,
        "tle_line1": "1 25994U 99068A   25338.31128654  .00001073  00000+0  22822-3 0  9991",
        "tle_line2": "2 25994  97.9761  30.3045 0003435 114.7985 314.3681 14.60938149381154"
      },
      "geometry": {
        "type": "Point",
        "coordinates": [
          26.019056467725395,
          29.45892226245995
        ]
      }
    },
    {
      "type": "Feature",
      "properties": {
        "norad_id": 27004,
        "name": "MAROC-TUBSAT",
        "group": "resource",
        "lat": 21.680168722500976,
        "lon": -29.18398611502896,
        "alt_km": 1006.1682947667905,
        "timestamp": "2025-12-04T13:52:00.104458+00:00",
        "meta_object_name": "MAROC-TUBSAT",
        "meta_object_id": "2001-056D",
        "meta_epoch": "2025-12-04T08:11:25.416096",
        "meta_mean_motion": 13.70252282,
        "meta_eccentricity": 0.00190966,
        "meta_inclination": 99.7912,
        "meta_ra_of_asc_node": 146.6392,
        "meta_arg_of_pericenter": 282.5,
        "meta_mean_anomaly": 149.4725,
        "meta_ephemeris_type": 0,
        "meta_classification_type": "U",
        "meta_norad_cat_id": 27004,
        "meta_element_set_no": 999,
        "meta_rev_at_epoch": 19950,
        "meta_bstar": 3.7447322e-05,
        "meta_mean_motion_dot": -1.4e-07,
        "meta_mean_motion_ddot": 0,
        "tle_line1": "1 27004U 01056D   25338.34126639 -.00000014  00000+0  37447-4 0  9994",
        "tle_line2": "2 27004  99.7912 146.6392 0019096 282.5000 149.4725 13.70252282199503"
      },
      "geometry": {
        "type": "Point",
        "coordinates": [
          -29.18398611502896,
          21.680168722500976
        ]
      }
    },
    {
      "type": "Feature",
      "properties": {
        "norad_id": 27424,
        "name": "AQUA",
        "group": "resource",
        "lat": -58.13371683500103,
        "lon": 105.56940084606,
        "alt_km": 694.8765651960557,
        "timestamp": "2025-12-04T13:52:00.104470+00:00",
        "meta_object_name": "AQUA",
        "meta_object_id": "2002-022A",
        "meta_epoch": "2025-12-04T08:33:04.320000",
        "meta_mean_motion": 14.6177843,
        "meta_eccentricity": 7.763e-05,
        "meta_inclination": 98.4025,
        "meta_ra_of_asc_node": 299.0998,
        "meta_arg_of_pericenter": 110.2594,
        "meta_mean_anomaly": 43.9931,
        "meta_ephemeris_type": 0,
        "meta_classification_type": "U",
        "meta_norad_cat_id": 27424,
        "meta_element_set_no": 999,
        "meta_rev_at_epoch": 25480,
        "meta_bstar": 0.00044137996,
        "meta_mean_motion_dot": 2.153e-05,
        "meta_mean_motion_ddot": 0,
        "tle_line1": "1 27424U 02022A   25338.35630000  .00002153  00000+0  44138-3 0  9996",
        "tle_line2": "2 27424  98.4025 299.0998 0000776 110.2594  43.9931 14.61778430254806"
      },
      "geometry": {
        "type": "Point",
        "coordinates": [
          105.56940084606,
          -58.13371683500103
        ]
      }
    }
  ]
}